GLOBALSTAR M024 [-]     
1 25883U 99043A   23363.73852042 -.00000156  00000+0 -32268-2 0  9995
2 25883  51.9988 148.7643 0000395 340.9480 123.5025 11.10156477 55399
GLOBALSTAR M027 [-]     
1 25884U 99043B   23363.84233737 -.00000016  00000+0  18074-2 0  9995
2 25884  52.0174 211.3519 0020544 204.1868 155.7961 11.04367200 82091
GLOBALSTAR M053 [-]     
1 25886U 99043D   23363.23875399 -.00000066  00000+0  88512-4 0  9997
2 25886  52.0011 347.2962 0003235 254.8032 199.5057 11.27652650 58981
GLOBALSTAR M058 [-]     
1 25907U 99049A   23363.59081087 -.00000081  00000+0  43495-4 0  9997
2 25907  51.9942  99.3218 0001772 328.1425  31.9302 11.93171707 88819
GLOBALSTAR M033 [-]     
1 25909U 99049C   23363.32936044 -.00000099  00000+0 -73486-4 0  9995
2 25909  51.9930  56.5746 0011386 248.9105 111.0525 12.20261523470320
GLOBALSTAR M055 [-]     
1 25910U 99049D   23363.56037918 -.00000082  00000+0  10723-3 0  9990
2 25910  52.0022  92.7355 0007723 102.2006 257.9711 12.29392512102620
